{"type": "FeatureCollection", "features": [ {"type": "Feature", "properties": {"norad_id": 66578, "name": "STARLINK-35743", "group": "last-30-days", "lat": -2.00403621009966, "lon": -62.07002074694806, "alt_km": 415.3996768516736, "timestamp": "2025-12-13T15:35:10.876316+00:00", "meta": {"OBJECT_NAME": "STARLINK-35743", "OBJECT_ID": "2025-268X", "EPOCH": "2025-12-12T20:00:01.999872", "MEAN_MOTION": 15.50617168, "ECCENTRICITY": 0.00012583, "INCLINATION": 43.0003, "RA_OF_ASC_NODE": 120.5523, "ARG_OF_PERICENTER": 268.9167, "MEAN_ANOMALY": 33.1913, "EPHEMERIS_TYPE": 0, "CLASSIFICATION_TYPE": "U", "NORAD_CAT_ID": 66578, "ELEMENT_SET_NO": 999, "REV_AT_EPOCH": 468, "BSTAR": -0.001495689, "MEAN_MOTION_DOT": -0.00087232, "MEAN_MOTION_DDOT": 0}, "tle": {"line1": "1 66578U 25268X   25346.83335648 -.00087232  00000+0 -14957-2 0  9996", "line2": "2 66578  43.0003 120.5523 0001258 268.9167  33.1913 15.50617168  4685"}}, "geometry": {"type": "Point", "coordinates": [-62.07002074694806, -2.00403621009966]}}, {"type": "Feature", "properties": {"norad_id": 66579, "name": "STARLINK-35868", "group": "last-30-days", "lat": -3.3022662401373166, "lon": -60.676627263551474, "alt_km": 415.469465627948, "timestamp": "2025-12-13T15:35:10.876326+00:00", "meta": {"OBJECT_NAME": "STARLINK-35868", "OBJECT_ID": "2025-268Y", "EPOCH": "2025-12-12T20:00:01.999872", "MEAN_MOTION": 15.50625583, "ECCENTRICITY": 0.00014128, "INCLINATION": 43.0003, "RA_OF_ASC_NODE": 120.5477, "ARG_OF_PERICENTER": 263.18, "MEAN_ANOMALY": 40.8418, "EPHEMERIS_TYPE": 0, "CLASSIFICATION_TYPE": "U", "NORAD_CAT_ID": 66579, "ELEMENT_SET_NO": 999, "REV_AT_EPOCH": 468, "BSTAR": -0.0017099892, "MEAN_MOTION_DOT": -0.00099558, "MEAN_MOTION_DDOT": 0}, "tle": {"line1": "1 66579U 25268Y   25346.83335648 -.00099558  00000+0 -17100-2 0  9994", "line2": "2 66579  43.0003 120.5477 0001412 263.1800  40.8418 15.50625583  4682"}}, "geometry": {"type": "Point", "coordinates": [-60.676627263551474, -3.3022662401373166]}}, {"type": "Feature", "properties": {"norad_id": 66580, "name": "STARLINK-35872", "group": "last-30-days", "lat": -4.611692957677313, "lon": -59.26482157765969, "alt_km": 415.66172917617587, "timestamp": "2025-12-13T15:35:10.876336+00:00", "meta": {"OBJECT_NAME": "STARLINK-35872", "OBJECT_ID": "2025-268Z", "EPOCH": "2025-12-12T20:00:01.999872", "MEAN_MOTION": 15.5061357, "ECCENTRICITY": 0.00012846, "INCLINATION": 43.0003, "RA_OF_ASC_NODE": 120.5436, "ARG_OF_PERICENTER": 268.9261, "MEAN_ANOMALY": 37.0194, "EPHEMERIS_TYPE": 0, "CLASSIFICATION_TYPE": "U", "NORAD_CAT_ID": 66580, "ELEMENT_SET_NO": 999, "REV_AT_EPOCH": 468, "BSTAR": -0.0014517363, "MEAN_MOTION_DOT": -0.00084695, "MEAN_MOTION_DDOT": 0}, "tle": {"line1": "1 66580U 25268Z   25346.83335648 -.00084695  00000+0 -14517-2 0  9991", "line2": "2 66580  43.0003 120.5436 0001284 268.9261  37.0194 15.50613570  4682"}}, "geometry": {"type": "Point", "coordinates": [-59.26482157765969, -4.611692957677313]}}, {"type": "Feature", "properties": {"norad_id": 66581, "name": "STARLINK-35744", "group": "last-30-days", "lat": -5.906900385576347, "lon": -57.861713825972245, "alt_km": 416.0701078009606, "timestamp": "2025-12-13T15:35:10.876345+00:00", "meta": {"OBJECT_NAME": "STARLINK-35744", "OBJECT_ID": "2025-268AA", "EPOCH": "2025-12-12T20:00:01.999872", "MEAN_MOTION": 15.50618793, "ECCENTRICITY": 0.00014847, "INCLINATION": 43.0002, "RA_OF_ASC_NODE": 120.538, "ARG_OF_PERICENTER": 284.0054, "MEAN_ANOMALY": 23.8544, "EPHEMERIS_TYPE": 0, "CLASSIFICATION_TYPE": "U", "NORAD_CAT_ID": 66581, "ELEMENT_SET_NO": 999, "REV_AT_EPOCH": 463, "BSTAR": -0.0015813482, "MEAN_MOTION_DOT": -0.00092158, "MEAN_MOTION_DDOT": 0}, "tle": {"line1": "1 66581U 25268AA  25346.83335648 -.00092158  00000+0 -15813-2 0  9995", "line2": "2 66581  43.0002 120.5380 0001484 284.0054  23.8544 15.50618793  4630"}}, "geometry": {"type": "Point", "coordinates": [-57.861713825972245, -5.906900385576347]}}, {"type": "Feature", "properties": {"norad_id": 66582, "name": "STARLINK-35746", "group": "last-30-days", "lat": -7.18432437474711, "lon": -56.46656599975997, "alt_km": 416.16327060901403, "timestamp": "2025-12-13T15:35:10.876355+00:00", "meta": {"OBJECT_NAME": "STARLINK-35746", "OBJECT_ID": "2025-268AB", "EPOCH": "2025-12-12T20:00:01.999872", "MEAN_MOTION": 15.50648956, "ECCENTRICITY": 0.00014314, "INCLINATION": 43.0003, "RA_OF_ASC_NODE": 120.5335, "ARG_OF_PERICENTER": 276.4618, "MEAN_ANOMALY": 33.2977, "EPHEMERIS_TYPE": 0, "CLASSIFICATION_TYPE": "U", "NORAD_CAT_ID": 66582, "ELEMENT_SET_NO": 999, "REV_AT_EPOCH": 468, "BSTAR": -0.0022924732, "MEAN_MOTION_DOT": -0.00132903, "MEAN_MOTION_DDOT": 0}, "tle": {"line1": "1 66582U 25268AB  25346.83335648 -.00132903  00000+0 -22925-2 0  9991", "line2": "2 66582  43.0003 120.5335 0001431 276.4618  33.2977 15.50648956  4689"}}, "geometry": {"type": "Point", "coordinates": [-56.46656599975997, -7.18432437474711]}}, {"type": "Feature", "properties": {"norad_id": 66583, "name": "STARLINK-35941", "group": "last-30-days", "lat": -8.513126281959044, "lon": -55.00267678453702, "alt_km": 416.21661856054834, "timestamp": "2025-12-13T15:35:10.876364+00:00", "meta": {"OBJECT_NAME": "STARLINK-35941", "OBJECT_ID": "2025-268AC", "EPOCH": "2025-12-12T20:00:01.999872", "MEAN_MOTION": 15.50604528, "ECCENTRICITY": 0.00014001, "INCLINATION": 43.0002, "RA_OF_ASC_NODE": 120.5281, "ARG_OF_PERICENTER": 284.6426, "MEAN_ANOMALY": 27.0533, "EPHEMERIS_TYPE": 0, "CLASSIFICATION_TYPE": "U", "NORAD_CAT_ID": 66583, "ELEMENT_SET_NO": 999, "REV_AT_EPOCH": 468, "BSTAR": -0.0011213886, "MEAN_MOTION_DOT": -0.00065638, "MEAN_MOTION_DDOT": 0}, "tle": {"line1": "1 66583U 25268AC  25346.83335648 -.00065638  00000+0 -11214-2 0  9991", "line2": "2 66583  43.0002 120.5281 0001400 284.6426  27.0533 15.50604528  4689"}}, "geometry": {"type": "Point", "coordinates": [-55.00267678453702, -8.513126281959044]}}, {"type": "Feature", "properties": {"norad_id": 66584, "name": "STARLINK-35939", "group": "last-30-days", "lat": -9.820434286855468, "lon": -53.54557866356506, "alt_km": 416.10122877427057, "timestamp": "2025-12-13T15:35:10.876374+00:00", "meta": {"OBJECT_NAME": "STARLINK-35939", "OBJECT_ID": "2025-268AD", "EPOCH": "2025-12-12T20:00:01.999872", "MEAN_MOTION": 15.50647252, "ECCENTRICITY": 0.00015924, "INCLINATION": 43.0004, "RA_OF_ASC_NODE": 120.5238, "ARG_OF_PERICENTER": 273.2706, "MEAN_ANOMALY": 40.3003, "EPHEMERIS_TYPE": 0, "CLASSIFICATION_TYPE": "U", "NORAD_CAT_ID": 66584, "ELEMENT_SET_NO": 999, "REV_AT_EPOCH": 468, "BSTAR": -0.0014816013, "MEAN_MOTION_DOT": -0.00086517, "MEAN_MOTION_DDOT": 0}, "tle": {"line1": "1 66584U 25268AD  25346.83335648 -.00086517  00000+0 -14816-2 0  9992", "line2": "2 66584  43.0004 120.5238 0001592 273.2706  40.3003 15.50647252  4682"}}, "geometry": {"type": "Point", "coordinates": [-53.54557866356506, -9.820434286855468]}}, {"type": "Feature", "properties": {"norad_id": 66585, "name": "STARLINK-35963", "group": "last-30-days", "lat": -11.05525368612188, "lon": -52.15245148359171, "alt_km": 416.18499413999234, "timestamp": "2025-12-13T15:35:10.876384+00:00", "meta": {"OBJECT_NAME": "STARLINK-35963", "OBJECT_ID": "2025-268AE", "EPOCH": "2025-12-12T20:00:01.999872", "MEAN_MOTION": 15.50626681, "ECCENTRICITY": 0.00017156, "INCLINATION": 43.0004, "RA_OF_ASC_NODE": 120.5189, "ARG_OF_PERICENTER": 265.7118, "MEAN_ANOMALY": 49.8145, "EPHEMERIS_TYPE": 0, "CLASSIFICATION_TYPE": "U", "NORAD_CAT_ID": 66585, "ELEMENT_SET_NO": 999, "REV_AT_EPOCH": 468, "BSTAR": -0.0018067906, "MEAN_MOTION_DOT": -0.00105108, "MEAN_MOTION_DDOT": 0}, "tle": {"line1": "1 66585U 25268AE  25346.83335648 -.00105108  00000+0 -18068-2 0  9994", "line2": "2 66585  43.0004 120.5189 0001715 265.7118  49.8145 15.50626681  4682"}}, "geometry": {"type": "Point", "coordinates": [-52.15245148359171, -11.05525368612188]}}, {"type": "Feature", "properties": {"norad_id": 66586, "name": "TJS-21", "group": "last-30-days", "lat": 23.406751409155696, "lon": -30.367867400958364, "alt_km": 14014.35726813443, "timestamp": "2025-12-13T15:35:10.876399+00:00", "meta": {"OBJECT_NAME": "TJS-21", "OBJECT_ID": "2025-269A", "EPOCH": "2025-12-10T17:31:22.184832", "MEAN_MOTION": 2.00567425, "ECCENTRICITY": 0.6805766, "INCLINATION": 63.269, "RA_OF_ASC_NODE": 162.5612, "ARG_OF_PERICENTER": 269.7806, "MEAN_ANOMALY": 18.6565, "EPHEMERIS_TYPE": 0, "CLASSIFICATION_TYPE": "U", "NORAD_CAT_ID": 66586, "ELEMENT_SET_NO": 999, "REV_AT_EPOCH": 39, "BSTAR": -0.044965385, "MEAN_MOTION_DOT": 1.083e-05, "MEAN_MOTION_DDOT": 0}, "tle": {"line1": "1 66586U 25269A   25344.73011788  .00001083  00000+0 -44965-1 0  9999", "line2": "2 66586  63.2690 162.5612 6805766 269.7806  18.6565  2.00567425   392"}}, "geometry": {"type": "Point", "coordinates": [-30.367867400958364, 23.406751409155696]}}, {"type": "Feature", "properties": {"norad_id": 66587, "name": "CZ-3B R/B", "group": "last-30-days", "lat": 51.26214464519294, "lon": -102.02276006329541, "alt_km": 20490.263639497374, "timestamp": "2025-12-13T15:35:10.876418+00:00", "meta": {"OBJECT_NAME": "CZ-3B R/B", "OBJECT_ID": "2025-269B", "EPOCH": "2025-12-10T19:33:40.006368", "MEAN_MOTION": 2.03086829, "ECCENTRICITY": 0.7519519, "INCLINATION": 51.3442, "RA_OF_ASC_NODE": 170.0917, "ARG_OF_PERICENTER": 228.3676, "MEAN_ANOMALY": 37.5722, "EPHEMERIS_TYPE": 0, "CLASSIFICATION_TYPE": "U", "NORAD_CAT_ID": 66587, "ELEMENT_SET_NO": 999, "REV_AT_EPOCH": 41, "BSTAR": 0.0011692039, "MEAN_MOTION_DOT": 0.00057137, "MEAN_MOTION_DDOT": 1.092514e-06}, "tle": {"line1": "1 66587U 25269B   25344.81504637  .00057137  10925-5  11692-2 0  9994", "line2": "2 66587  51.3442 170.0917 7519519 228.3676  37.5722  2.03086829   418"}}, "geometry": {"type": "Point", "coordinates": [-102.02276006329541, 51.26214464519294]}}]}